H005612 17.98  0.15 K151Q 179.88114  241.07698   78.18338    6.01052  0.0598212  0.21586148   2.7522378    FO 210215     5  **  4.8 hrs  0.08 *** **  Find_Orb   **** H005612                     20150126
H005613 19.16  0.15 K151Q 272.66786  118.54505  120.93055   16.92562  0.1037145  0.17826797   3.1267069    FO 210215     5  **  4.8 hrs  0.15 *** **  Find_Orb   **** H005613                     20150126
H005614 19.88  0.15 K151Q 179.83511  263.33230   54.23223    4.83854  0.0492269  0.29761048   2.2217946    FO 210215     5  **  4.8 hrs  0.15 *** **  Find_Orb   **** H005614                     20150126
H005615 19.46  0.15 K151Q 179.86105  229.61435   88.82708    6.71446  0.0449212  0.25149022   2.4857378    FO 210215     5  **  4.8 hrs  0.08 *** **  Find_Orb   **** H005615                     20150126
H005616 19.06  0.15 K151Q 359.88450  156.75819  340.28910   12.33290  0.1640097  0.21166351   2.7885090    FO 210215     3  **  4.4 hrs  0.11 *** **  Find_Orb   **** H005616                     20150126
H005617 19.72  0.15 K151Q 179.88176  278.17839   40.91645    5.55923  0.0561186  0.21473127   2.7618867    FO 210215     5  **  4.8 hrs  0.19 *** **  Find_Orb   **** H005617                     20150126
H005618 19.35  0.15 K151Q 359.84985   91.53877   45.12277    4.34322  0.1003924  0.27452031   2.3446952    FO 210215     4  **  4.4 hrs  0.15 *** **  Find_Orb   **** H005618                     20150126
H005619 23.02  0.15 K151Q 359.83949   64.77000   70.21002    4.07993  0.2125319  0.29239129   2.2481559    FO 210215     4  **  4.4 hrs  0.08 *** **  Find_Orb   **** H005619                     20150126
H005620 21.49  0.15 K151R   0.10259  136.94974    0.30705    7.17083  0.0151344  0.27065096   2.3669895    FO 210215     3  **   45 min  0.11 *** **  Find_Orb   **** H005620                     20150126
H005621 17.88  0.15 K151Q 179.90296  238.34648   82.42935    7.10120  0.2006223  0.17781922   3.1319651    FO 210215     4  **  4.8 hrs  0.07 *** **  Find_Orb   **** H005621                     20150126
H005622 18.88  0.15 K151Q 179.90518  214.96626  106.05372   10.58108  0.1821765  0.17373711   3.1808339    FO 210215     4  **  4.8 hrs  0.08 *** **  Find_Orb   **** H005622                     20150126
H005623 22.34  0.15 K151Q 359.84860   34.83395  101.08127    7.09411  0.1841187  0.27207857   2.3587024    FO 210215     4  **  4.8 hrs  0.10 *** **  Find_Orb   **** H005623                     20150126
H005624 22.60  0.15 K151Q  12.59604   74.37672   37.75446    3.94070  0.2765764  0.25116833   2.4878611    FO 210215     4  **  4.8 hrs  0.14 *** **  Find_Orb   **** H005624                     20150126
H005626 21.55  0.15 K151R   0.10842  121.49695   13.38071    4.26798  0.2076042  0.29514009   2.2341753    FO 210215     4  **   69 min  0.02 *** **  Find_Orb   **** H005626                     20150126
H005627 21.26  0.15 K151R 180.11101  280.65132   36.82971    4.79099  0.0537061  0.29951828   2.2123500    FO 210215     4  **   69 min  0.10 *** **  Find_Orb   **** H005627                     20150126
H005628 22.00  0.15 K151R   0.10775  123.08629   12.56927    4.79849  0.1436205  0.29258577   2.2471596    FO 210215     4  **   69 min  0.09 *** **  Find_Orb   **** H005628                     20150126
H005629 24.86  0.15 K151Q 359.17582  107.96930   28.35947    3.26099  0.5115789  0.16595264   3.2795426    FO 210215     4  **  4.8 hrs  0.37 *** **  Find_Orb   **** H005629                     20150126
H005630 21.16  0.15 K151Q 359.77911  102.13239   34.95919    4.86792  0.1127082  0.25117739   2.4878013    FO 210215     5  **  4.8 hrs  0.34 *** **  Find_Orb   **** H005630                     20150126
H005631 20.42  0.15 K151Q 359.84470   62.55592   74.12752    5.24805  0.0892478  0.27963733   2.3160039    FO 210215     4  **  4.8 hrs  0.20 *** **  Find_Orb   **** H005631                     20150126
H005632 19.68  0.15 K151Q 359.87170   96.93906   41.23898    5.43104  0.0092051  0.23220496   2.6215313    FO 210215     5  **  4.8 hrs  0.15 *** **  Find_Orb   **** H005632                     20150126
H005633 21.04  0.15 K151Q 179.82446  295.88879   21.45212    5.64729  0.0939281  0.31683071   2.1310053    FO 210215     5  **  4.8 hrs  0.21 *** **  Find_Orb   **** H005633                     20150126
H005634 18.32  0.15 K151Q 179.89141  327.51804  351.80929   11.46606  0.1320322  0.19800255   2.9153376    FO 210215     5  **  4.8 hrs  0.12 *** **  Find_Orb   **** H005634                     20150126
H005635 21.08  0.15 K151Q 179.82819  250.76421   66.79008    5.21045  0.0894184  0.31487351   2.1398268    FO 210215     4  **  4.4 hrs  0.40 *** **  Find_Orb   **** H005635                     20150126
H005636 21.62  0.15 K151Q 359.85231   80.17881   56.43599    4.65382  0.1192279  0.26594398   2.3948369    FO 210215     4  **  4.8 hrs  0.16 *** **  Find_Orb   **** H005636                     20150126
H005637 21.99  0.15 K151R   0.10807   44.61016   90.44807    5.43709  0.2093159  0.29418431   2.2390118    FO 210215     4  **   69 min  0.15 *** **  Find_Orb   **** H005637                     20150126
H005638 22.07  0.15 K151R   0.10028  118.87224   17.63376    5.19525  0.1069727  0.27151382   2.3619720    FO 210215     4  **   69 min  0.07 *** **  Find_Orb   **** H005638                     20150126
H005639 21.22  0.15 K151R   0.09918   89.31827   46.32643    4.36767  0.1896208  0.26933093   2.3747172    FO 210215     4  **   69 min  0.06 *** **  Find_Orb   **** H005639                     20150126
H005640 19.81  0.15 K151Q 359.87234   17.76137  120.08797   14.60826  0.1153740  0.23040062   2.6352002    FO 210215     5  **  4.8 hrs  0.09 *** **  Find_Orb   **** H005640                     20150126
H005641 22.01  0.15 K151Q 359.83385   52.36077   84.33287    5.28506  0.0472953  0.29917981   2.2140182    FO 210215     5  **  4.8 hrs  0.23 *** **  Find_Orb   **** H005641                     20150126
H005642 20.02  0.15 K151Q 359.89613  150.83632  347.06083   10.08181  0.1393345  0.18799549   3.0178971    FO 210215     5  **  4.8 hrs  0.06 *** **  Find_Orb   **** H005642                     20150126
H005643 17.33  0.15 K151Q 179.90164  293.13935   27.15771    6.21109  0.2114402  0.18022791   3.1039975    FO 210215     5  **  4.8 hrs  0.11 *** **  Find_Orb   **** H005643                     20150126
H005644 20.71  0.15 K151Q 359.88720  149.61195  348.43394    9.81732  0.1555046  0.17878816   3.1206391    FO 210215     5  **  4.8 hrs  0.19 *** **  Find_Orb   **** H005644                     20150126
H005645 21.35  0.15 K151Q 359.84859   43.91629   92.75561    6.09487  0.0953653  0.27682463   2.3316654    FO 210215     4  **  4.4 hrs  0.13 *** **  Find_Orb   **** H005645                     20150126
H005646 19.66  0.15 K151Q 359.87897   23.50892  115.15215   12.16533  0.0469610  0.21905939   2.7253867    FO 210215     4  **  4.8 hrs  0.02 *** **  Find_Orb   **** H005646                     20150126
H005647 22.83  0.15 K151Q  31.72289   49.79061   25.01641    3.83437  0.3223775  0.27706067   2.3303410    FO 210215     5  **  4.8 hrs  0.27 *** **  Find_Orb   **** H005647                     20150126
H005648 21.40  0.15 K151Q 359.83204   47.00515   88.62246    5.36670  0.1256491  0.30184395   2.2009714    FO 210215     5  **  4.8 hrs  0.14 *** **  Find_Orb   **** H005648                     20150126
H005649 18.69  0.15 K151Q 359.87283  138.77510  358.97858    7.50372  0.0150118  0.23016665   2.6369858    FO 210215     4  **  4.8 hrs  0.03 *** **  Find_Orb   **** H005649                     20150126
H005650 19.53  0.15 K151Q 359.87187   87.18442   50.97801    5.01204  0.0100829  0.23189642   2.6238561    FO 210215     4  **  4.8 hrs  0.09 *** **  Find_Orb   **** H005650                     20150126
H005651 21.75  0.15 K151Q 179.82638  308.71683    8.38229    5.95047  0.0859261  0.31336069   2.1467083    FO 210215     5  **  4.8 hrs  0.30 *** **  Find_Orb   **** H005651                     20150126
H005652 17.21  0.15 K151Q 179.90554  262.73856   56.84436    5.63762  0.0315749  0.17223991   3.1992402    FO 210215     5  **  4.8 hrs  0.07 *** **  Find_Orb   **** H005652                     20150126
H005653 19.28  0.15 K151Q 270.80914  119.74663  121.30137   17.36035  0.1029944  0.17913800   3.1165749    FO 210215     4  **  4.4 hrs  0.05 *** **  Find_Orb   **** H005653                     20150126
H005654 19.25  0.15 K151Q 359.85081  107.35195   29.76157    4.90380  0.0185050  0.26926271   2.3751183    FO 210215     5  **  4.8 hrs  0.26 *** **  Find_Orb   **** H005654                     20150126
H005655 21.45  0.15 K151Q 359.88079  156.18878  340.50862   11.90032  0.1548400  0.21515552   2.7582548    FO 210215     5  **  4.8 hrs  0.07 *** **  Find_Orb   **** H005655                     20150126
H005656 22.50  0.15 K151Q  35.58202   10.07483   59.16233    4.07822  0.3236349  0.26940000   2.3743113    FO 210215     4  **  4.4 hrs  0.20 *** **  Find_Orb   **** H005656                     20150126
H005657 19.73  0.15 K151Q 179.83379  241.19455   77.04727    5.78089  0.1774578  0.30082495   2.2059389    FO 210215     4  **  4.8 hrs  0.09 *** **  Find_Orb   **** H005657                     20150126
H005658 22.18  0.15 K151Q 359.87421  160.93513  335.01452   13.51130  0.2086455  0.22649127   2.6654369    FO 210215     4  **  4.8 hrs  0.23 *** **  Find_Orb   **** H005658                     20150126
H005659 20.51  0.15 K151Q 179.87950  329.91679  348.40949   10.79509  0.0695288  0.21883407   2.7272571    FO 210215     4  **  4.8 hrs  0.10 *** **  Find_Orb   **** H005659                     20150126
H005660 19.19  0.15 K151Q 179.90167  227.75966   92.67803    8.15619  0.2112071  0.18017591   3.1045947    FO 210215     4  **  4.8 hrs  0.20 *** **  Find_Orb   **** H005660                     20150126
H005662 19.81  0.15 K151R   0.07155   32.92366  106.37942   10.11559  0.0221978  0.19129461   2.9830982    FO 210215     4  **   69 min  0.28 *** **  Find_Orb   **** H005662                     20150126
